IRIDIUM 124             
1 42810U 17039H   26087.90619394  .00000359  00000+0  10081-3 0  9998
2 42810  86.4502 323.9480 0002117  87.7592 272.3851 14.43288644463533
IRIDIUM 128             
1 42811U 17039J   26087.90558701  .00000181  00000+0  57695-4 0  9999
2 42811  86.3942  58.7025 0002335  91.2443 268.9020 14.34218586458470
IRIDIUM 121             
1 42812U 17039K   26087.86410089  .00000273  00000+0  90581-4 0  9994
2 42812  86.4004  27.2264 0002285  85.0173 275.1284 14.34216749458316
IRIDIUM 133             
1 42955U 17061A   26087.93729986  .00000091  00000+0  25595-4 0  9995
2 42955  86.3942  58.8051 0002240  89.1397 271.0055 14.34218032443279
IRIDIUM 100             
1 42956U 17061B   26087.93095710  .00000198  00000+0  63546-4 0  9993
2 42956  86.3942  58.7281 0002209  89.3179 270.8270 14.34218185443274
IRIDIUM 122             
1 42957U 17061C   26087.89924387 -.00000016  00000+0 -12845-4 0  9997
2 42957  86.3941  58.7418 0002044  88.4954 271.6476 14.34217990443274
IRIDIUM 129             
1 42958U 17061D   26087.92461450  .00000042  00000+0  78284-5 0  9996
2 42958  86.3942  58.7969 0002153  78.9632 281.1806 14.34217510443298
IRIDIUM 119             
1 42959U 17061E   26087.89290137  .00000042  00000+0  79484-5 0  9998
2 42959  86.3945  58.8059 0002065  85.7338 274.4093 14.34217382443306
IRIDIUM 107             
1 42960U 17061F   26087.84216045  .00000016  00000+0 -13416-5 0  9996
2 42960  86.3944  58.8481 0001953  94.9266 265.2152 14.34217626443308
IRIDIUM 132             
1 42961U 17061G   26087.91827198  .00000015  00000+0 -15860-5 0  9996
2 42961  86.3942  58.7962 0002093  90.1242 270.0193 14.34217602443312
IRIDIUM 136             
1 42962U 17061H   26087.88021598  .00000131  00000+0  39793-4 0  9991
2 42962  86.3945  58.8183 0002069  87.5280 272.6153 14.34218350443323
IRIDIUM 139             
1 42963U 17061J   26087.88655876  .00000193  00000+0  61685-4 0  9997
2 42963  86.3945  58.8762 0002237  89.8892 270.2560 14.34218431443335
IRIDIUM 125             
1 42964U 17061K   26087.87387180  .00000264  00000+0  87262-4 0  9995
2 42964  86.3945  58.9411 0001646  90.8960 269.2424 14.34218852443344
IRIDIUM 135             
1 43070U 17083A   26087.77823128  .00000239  00000+0  78349-4 0  9992
2 43070  86.4025 355.6260 0002196  85.6787 274.4659 14.34218761432628
IRIDIUM 138             
1 43071U 17083B   26087.80360154  .00000276  00000+0  91657-4 0  9990
2 43071  86.4037 355.2987 0001876  77.8248 282.3158 14.34218762432615
IRIDIUM 116             
1 43072U 17083C   26087.84165287  .00000256  00000+0  84529-4 0  9993
2 43072  86.4024 355.5865 0002384  89.5190 270.6279 14.34215483432656
IRIDIUM 130             
1 43073U 17083D   26087.80994429 -.00000053  00000+0 -26115-4 0  9992
2 43073  86.4028 355.8668 0002067  92.6460 267.4972 14.34217510432598
